[{"OBJECT_NAME":"LUR-1","OBJECT_ID":"2024-149AQ","EPOCH":"2026-03-09T19:05:45.284064","MEAN_MOTION":15.28658648,"ECCENTRICITY":0.00027765,"INCLINATION":97.379,"RA_OF_ASC_NODE":148.4255,"ARG_OF_PERICENTER":309.1571,"MEAN_ANOMALY":50.9421,"EPHEMERIS_TYPE":0,"CLASSIFICATION_TYPE":"U","NORAD_CAT_ID":60506,"ELEMENT_SET_NO":999,"REV_AT_EPOCH":8678,"BSTAR":0.0003298462,"MEAN_MOTION_DOT":9.121e-5,"MEAN_MOTION_DDOT":0},{"OBJECT_NAME":"STARLINK-35853","OBJECT_ID":"2025-303Q","EPOCH":"2026-03-08T16:54:01.047456","MEAN_MOTION":15.27576586,"ECCENTRICITY":0.00012497,"INCLINATION":42.9964,"RA_OF_ASC_NODE":316.3452,"ARG_OF_PERICENTER":280.8737,"MEAN_ANOMALY":79.1974,"EPHEMERIS_TYPE":0,"CLASSIFICATION_TYPE":"U","NORAD_CAT_ID":67177,"ELEMENT_SET_NO":999,"REV_AT_EPOCH":1258,"BSTAR":0.00053714083,"MEAN_MOTION_DOT":0.00014547,"MEAN_MOTION_DDOT":0}]
